[{"OBJECT_NAME":"STARLINK-6156","OBJECT_ID":"2023-061A","EPOCH":"2026-03-09T22:00:01.999584","MEAN_MOTION":15.1289423,"ECCENTRICITY":0.00016724,"INCLINATION":42.9997,"RA_OF_ASC_NODE":196.0642,"ARG_OF_PERICENTER":260.4198,"MEAN_ANOMALY":359.8714,"EPHEMERIS_TYPE":0,"CLASSIFICATION_TYPE":"U","NORAD_CAT_ID":56374,"ELEMENT_SET_NO":999,"REV_AT_EPOCH":557,"BSTAR":0.004197719,"MEAN_MOTION_DOT":0.0007578,"MEAN_MOTION_DDOT":0},{"OBJECT_NAME":"CZ-4C R\/B","OBJECT_ID":"2020-103C","EPOCH":"2026-03-09T22:29:51.645120","MEAN_MOTION":15.00867026,"ECCENTRICITY":0.00868382,"INCLINATION":98.3813,"RA_OF_ASC_NODE":98.2397,"ARG_OF_PERICENTER":305.3689,"MEAN_ANOMALY":53.9441,"EPHEMERIS_TYPE":0,"CLASSIFICATION_TYPE":"U","NORAD_CAT_ID":47304,"ELEMENT_SET_NO":999,"REV_AT_EPOCH":28329,"BSTAR":0.00023135286,"MEAN_MOTION_DOT":3.11e-5,"MEAN_MOTION_DDOT":0}]
